FENGYUN 1C DEB          
1 31836U 99025CJA 17342.25476071  .00000748  00000-0  55368-3 0  9994
2 31836  98.6556  84.5346 0134277 355.2830   4.7058 13.93984879535774
